STARLINK-2024_new
1 17606C 21009BL  21326.10850030  .00010392  00000-0  69622-3 0  3263
2 17606  53.0525 213.2386 0002000  70.5678  27.9148 15.06389631    19
STARLINK-2024_old
1 27606C 21009BL  21325.11440827  .00008897  00000-0  59628-3 0  3253
2 27606  53.0526 217.7013 0001909  70.2009  34.3301 15.06379820    10
